CZ-4B R/B               
1 28059U 03049C   16123.66336380  .00000047  00000-0  23280-4 0  9998
2 28059  98.6188 354.0498 0051246  59.1694   5.2030 14.52438646664088
CZ-2C R/B               
1 28222U 04012C   16122.87555216  .00001053  00000-0  69853-4 0  9998
2 28222  97.4700  82.9091 0050025 154.4015 258.6880 15.08384422658593
SL-16 R/B               
1 28353U 04021B   16124.17920916 -.00000267  00000-0 -11488-3 0  9999
2 28353  71.0010 218.3014 0002929 113.6185 246.5245 14.14170351614194
CZ-2C R/B               
1 28480U 04046B   16123.94672407  .00000025  00000-0  25274-4 0  9999
2 28480  98.1764 240.8514 0141938 355.8617 109.9197 14.25587236595787
ARIANE 5 R/B            
1 28499U 04049H   16124.20137317  .00000251  00000-0  38323-4 0  9998
2 28499  98.1118 198.0273 0094055  98.7071 285.2973 14.79681454613361
CZ-2D R/B               
1 28738U 05024B   16124.10266846  .00001405  00000-0  89174-4 0  9999
2 28738  97.5463 161.8577 0011716 341.8778  18.2032 15.10468589593890
SUZAKU (ASTRO-EII)      
1 28773U 05025A   16123.27115944  .00002207  00000-0  11189-3 0  9999
2 28773  31.3827  78.8883 0004872 189.4392 170.6164 15.14661633594977
ALOS (DAICHI)           
1 28931U 06002A   16123.22981195  .00000317  00000-0  71680-4 0  9998
2 28931  97.8887 164.0933 0001908 118.7298 241.4096 14.62174836547400
H-2A R/B                
1 28932U 06002B   16123.22360416  .00000827  00000-0  84315-4 0  9991
2 28932  98.2191  23.6286 0090021 216.9115 295.6461 14.90839703556564
AKARI (ASTRO-F)         
1 28939U 06005A   16124.04696672  .00012207  00000-0  40452-3 0  9996
2 28939  98.2344 276.0935 0116188 164.8995 195.5758 15.25095080550524
RESURS-DK 1             
1 29228U 06021A   16124.21412399  .00000560  00000-0  50253-4 0  9997
2 29228  69.9373  60.9352 0007865 252.1026 107.9284 15.01881671546544
GENESIS 1               
1 29252U 06029A   16123.56966611  .00001451  00000-0  84887-4 0  9990
2 29252  64.5049 185.7564 0034331 232.5772 233.5674 15.15919932539572
CZ-4B R/B               
1 29507U 06046C   16123.59026297  .00000327  00000-0  31171-4 0  9991
2 29507  97.7832 124.8869 0039489 208.7364 151.1684 14.99677081519498
CZ-2C R/B               
1 31114U 07010B   16122.89482015  .00000020  00000-0  28867-4 0  9994
2 31114  98.4152  40.2281 0059235 330.3416  29.4406 14.19201478469160
COSMO-SKYMED 1          
1 31598U 07023A   16124.18344944  .00000166  00000-0  27437-4 0  9999
2 31598  97.8775 308.3045 0001487  86.3617 273.7746 14.82157554481714
GENESIS 2               
1 31789U 07028A   16122.80108162  .00001258  00000-0  75317-4 0  9996
2 31789  64.5047 224.7744 0053288 272.8790  86.6233 15.15164629486553
COSMOS 2428             
1 31792U 07029A   16124.05603419  .00000137  00000-0  10000-3 0  9997
2 31792  70.9457 192.8905 0007203 186.3676 246.0643 14.12393505456169
SL-16 R/B               
1 31793U 07029B   16123.54047964  .00000271  00000-0  16681-3 0  9998
2 31793  70.9750 171.7144 0001883 278.4080 183.2515 14.14361529456654
KORONAS-FOTON           
1 33504U 09003A   16123.03051091  .00001314  00000-0  69800-4 0  9995
2 33504  82.4414 281.3676 0021261  90.6357 269.7311 15.14251285399245
TIANGONG 1              
1 37820U 11053A   16124.12099977  .00017093  00000-0  19571-3 0  9994
2 37820  42.7630 156.6632 0011851  89.9993 315.4831 15.61744951263533
CZ-3B R/B               
1 38253U 12018D   16123.69197737  .00336507  54338-6  11155-2 0  9993
2 38253  54.9606 288.0537 3670682 166.0358 207.8716  8.25573314 87168
H-2A R/B                
1 38341U 12025E   16123.73092127  .00000529  00000-0  70511-4 0  9997
2 38341  98.4844 170.6317 0056955  38.5647 321.9612 14.83288077214027
CZ-2C R/B               
1 39000U 12064D   16123.81025450  .00165389  12289-4  48444-3 0  9998
2 39000  97.2765 165.4230 0004615 138.7961 221.3663 15.92765031194873
CUSAT 2 & FALCON 9 R/B  
1 39271U 13055G   16123.01576630  .00019641  00000-0  53145-3 0  9999
2 39271  80.9710  69.9683 0659650 333.0142  23.8097 14.30653228133692
ASTRO-H (HITOMI)        
1 41337U 16012A   16123.24408517  .00000560  00000-0  39239-4 0  9993
2 41337  31.0069 202.3456 0012784 303.2446  56.6966 14.98032347 11242
